BEIDOU 3 (C01)          
1 36287U 10001A   21298.54579392 -.00000272  00000-0  00000+0 0  9995
2 36287   1.6958  42.2419 0002502  81.5080 247.3092  1.00276662 43150
BEIDOU 5 (C06)          
1 36828U 10036A   21298.32275252 -.00000093  00000-0  00000-0 0  9990
2 36828  54.1796 178.3940 0023196 177.6319 260.9814  1.00265894 41222
BEIDOU 6 (C04)          
1 37210U 10057A   21298.32408484 -.00000104  00000-0  00000-0 0  9997
2 37210   0.7627  40.3247 0004423 151.6224 118.6700  1.00272942 40274
BEIDOU 7 (C07)          
1 37256U 10068A   21298.33556617 -.00000185  00000-0  00000-0 0  9991
2 37256  50.6331 292.4529 0017542 190.7589 140.1664  1.00267497 39789
BEIDOU 8 (C08)          
1 37384U 11013A   21298.26785904 -.00000173  00000-0  00000-0 0  9996
2 37384  59.9591  56.6018 0019402 182.9715 356.9067  1.00271730 38660
BEIDOU 9 (C09)          
1 37763U 11038A   21298.12481404 -.00000051  00000-0  00000-0 0  9992
2 37763  54.4659 180.8585 0086220 226.2662 126.4395  1.00283474 37638
BEIDOU 10 (C10)         
1 37948U 11073A   21298.26624214 -.00000135  00000-0  00000-0 0  9992
2 37948  50.7416 292.0781 0078791 218.1423  74.8588  1.00263725 36395
BEIDOU 11 (C05)         
1 38091U 12008A   21298.53963627  .00000065  00000-0  00000+0 0  9995
2 38091   1.8342  70.6990 0002812 285.1948 291.3122  1.00269165 35471
BEIDOU 12 (C11)         
1 38250U 12018A   21297.88057748 -.00000099  00000-0  00000-0 0  9997
2 38250  56.7432   1.3410 0023876 246.0039  63.3080  1.86234247 64698
BEIDOU 13 (C12)         
1 38251U 12018B   21297.81035218 -.00000099  00000-0  00000-0 0  9999
2 38251  56.6629   0.6849 0014837 246.0433  60.5113  1.86234014 64697
BEIDOU 15 (C14)         
1 38775U 12050B   21298.09525808  .00000039  00000-0  00000-0 0  9999
2 38775  55.2690 119.6122 0012073 329.8369   4.9184  1.86231276 62071
BEIDOU 16 (C02)         
1 38953U 12059A   21298.14007918 -.00000168  00000-0  00000-0 0  9993
2 38953   1.4069  84.2833 0009510 277.5824 166.3856  1.00270277 33049
BEIDOU 17 (C31)         
1 40549U 15019A   21297.92888947 -.00000150  00000-0  00000-0 0  9991
2 40549  52.2867 315.4910 0038016 190.0566 316.1107  1.00293311 24074
BEIDOU 18 (C57)         
1 40748U 15037A   21298.48743009 -.00000097  00000-0  00000+0 0  9992
2 40748  55.9216 359.6709 0001136 344.1488 326.1194  1.86233342 42537
BEIDOU 19 (C58)         
1 40749U 15037B   21298.35473580 -.00000097  00000-0  00000+0 0  9993
2 40749  55.9250 359.6642 0004021 288.2017  68.6124  1.86232013 42528
BEIDOU 20 (C18)         
1 40938U 15053A   21298.26962293 -.00000107  00000-0  00000-0 0  9998
2 40938  51.8692 278.5740 0047757 196.2192 109.3388  1.00254985 22347
BEIDOU IGSO-6 (C13)     
1 41434U 16021A   21298.55766980 -.00000147  00000-0  00000+0 0  9996
2 41434  57.7590  55.2823 0044033 211.3646  63.0937  1.00287393 20477
BEIDOU-2 G7 (C03)       
1 41586U 16037A   21298.22124219 -.00000346  00000-0  00000-0 0  9990
2 41586   1.9781  69.4898 0007411   9.6506 144.9203  1.00270312 19789
BEIDOU-3 M1 (C19)       
1 43001U 17069A   21298.49474324  .00000042  00000-0  00000+0 0  9995
2 43001  55.4232 119.5685 0007241 291.9893 106.6593  1.86231748 27022
BEIDOU-3 M2 (C20)       
1 43002U 17069B   21298.47942891  .00000042  00000-0  00000+0 0  9993
2 43002  55.4233 119.6035 0006062 324.5742 107.0883  1.86231353 27018
BEIDOU-3 M3 (C27)       
1 43107U 18003A   21298.11132620 -.00000100  00000-0  00000-0 0  9997
2 43107  55.3666   0.7055 0003504  60.9459 289.8553  1.86232466 25768
BEIDOU-3 M4 (C28)       
1 43108U 18003B   21298.10133171 -.00000100  00000-0  00000-0 0  9999
2 43108  55.3611   0.6947 0004127 234.8160 154.4659  1.86232474 25775
BEIDOU-3 M5 (C21)       
1 43207U 18018A   21297.96789849  .00000038  00000-0  00000+0 0  9995
2 43207  55.3820 119.7084 0004556   3.4240 356.6184  1.86231580 25154
BEIDOU-3 M6 (C22)       
1 43208U 18018B   21298.03462691  .00000039  00000-0  00000+0 0  9999
2 43208  55.3819 119.7105 0005392 309.3433  50.6473  1.86231597 25158
BEIDOU-3 M7 (C29)       
1 43245U 18029A   21298.19875898 -.00000098  00000-0  00000-0 0  9993
2 43245  55.2925 358.4877 0001128 213.1653 106.5337  1.86232584 24306
BEIDOU-3 M8 (C30)       
1 43246U 18029B   21298.07997019 -.00000099  00000-0  10000-3 0  9996
2 43246  55.2894 358.5213 0003000 340.9116 305.4703  1.86232940 24292
BEIDOU IGSO-7 (C16)     
1 43539U 18057A   21298.32561130 -.00000101  00000-0  00000-0 0  9991
2 43539  55.0612 177.7956 0040496 222.8381 223.6964  1.00282297 12158
BEIDOU-3 M9 (C23)       
1 43581U 18062A   21298.22897112  .00000007  00000-0  00000+0 0  9998
2 43581  54.3545 240.1447 0005638 280.4756 316.1666  1.86231841 22046
BEIDOU-3 M10 (C24)      
1 43582U 18062B   21298.09600051  .00000007  00000-0  00000-0 0  9999
2 43582  54.3548 240.1387 0005801 340.7212 258.2644  1.86232303 22048
BEIDOU-3 M11 (C25)      
1 43602U 18067A   21298.02815970  .00000007  00000-0  00000-0 0  9998
2 43602  54.4335 238.7350 0007273 355.7428 239.6885  1.86231479 21535
BEIDOU-3 M12 (C26)      
1 43603U 18067B   21298.16319262  .00000007  00000-0  00000+0 0  9996
2 43603  54.4301 238.6978 0004657 341.4029 254.9926  1.86231417 21556
BEIDOU-3 M13 (C32)      
1 43622U 18072A   21298.30049338  .00000040  00000-0  00000+0 0  9990
2 43622  55.3478 119.2603 0003985 287.0907  71.3229  1.86231726 21060
BEIDOU-3 M14 (C33)      
1 43623U 18072B   21298.09254425  .00000039  00000-0  00000-0 0  9991
2 43623  55.3500 119.2582 0002783 337.8247 331.4026  1.86231749 21069
BEIDOU-3 M15 (C34)      
1 43647U 18078A   21296.31353722 -.00000104  00000-0  10000-3 0  9994
2 43647  55.1871 358.7301 0005285 351.8067  99.9097  1.86232747 20544
BEIDOU-3 M16 (C35)      
1 43648U 18078B   21297.81343586 -.00000100  00000-0  00000-0 0  9990
2 43648  55.1830 358.6850 0003079   3.4365 282.1198  1.86232241 20589
BEIDOU-3 G1 (C59)       
1 43683U 18085A   21298.19973296 -.00000270  00000-0  00000-0 0  9994
2 43683   0.8930 208.9629 0004968  35.0747   1.7691  1.00272009 11057
BEIDOU-3 M17 (C36)      
1 43706U 18093A   21298.07733310  .00000007  00000-0  00000-0 0  9994
2 43706  54.4358 240.0190 0010504 277.4090  82.4690  1.86232011 19953
BEIDOU-3 M18 (C37)      
1 43707U 18093B   21298.05034106  .00000007  00000-0  00000-0 0  9990
2 43707  54.4371 240.0099 0009705 297.3543 135.4079  1.86232137 19940
BEIDOU-3 IGSO-1 (C38)   
1 44204U 19023A   21298.26026414 -.00000209  00000-0  00000-0 0  9998
2 44204  56.2135  55.5113 0023145 186.8030   4.2214  1.00282081  9351
BEIDOU-2 G8             
1 44231U 19027A   21298.31133826 -.00000239  00000-0  00000-0 0  9997
2 44231   0.3498  47.7763 0007549 156.4783  86.3217  1.00272928  9066
BEIDOU-3 IGSO-2 (C39)   
1 44337U 19035A   21298.03480139 -.00000099  00000-0  00000-0 0  9998
2 44337  55.0964 173.8310 0020320 179.5955 172.3914  1.00272896  8687
BEIDOU-3 M23 (C45)      
1 44542U 19061A   21296.74638858  .00000003  00000-0  10000-3 0  9992
2 44542  54.6619 240.1589 0009364 327.4609 263.6881  1.86231648 14170
BEIDOU-3 M24 (C46)      
1 44543U 19061B   21296.97611174  .00000004  00000-0  10000-3 0  9991
2 44543  54.6604 240.1216 0006750 316.3535 339.8266  1.86231932 14172
BEIDOU-3 IGSO-3         
1 44709U 19073A   21298.30455345 -.00000161  00000-0  00000-0 0  9994
2 44709  57.6397 298.8173 0020065 186.8171 138.0021  1.00278011  7446
BEIDOU-3 M21            
1 44793U 19078A   21298.28489708 -.00000098  00000-0  10000-3 0  9992
2 44793  55.0359 358.7125 0005011   0.9700 286.7179  1.86232314 13060
BEIDOU-3 M22            
1 44794U 19078B   21297.88088046 -.00000100  00000-0  00000-0 0  9998
2 44794  55.0100 358.7230 0003154 354.9254 293.1097  1.86232785 13056
BEIDOU-3 M19            
1 44864U 19090A   21298.01270038  .00000038  00000-0  00000-0 0  9999
2 44864  55.2832 119.4926 0014201 265.2434 305.7627  1.86231876 12644
BEIDOU-3 M20            
1 44865U 19090B   21298.26052573  .00000040  00000-0  00000-0 0  9992
2 44865  55.2854 119.5165 0012538 281.8084 185.2545  1.86231833 12622
BEIDOU-3 G2             
1 45344U 20017A   21298.18382661 -.00000136  00000-0  00000-0 0  9998
2 45344   2.2777 341.4602 0002558 189.2609   9.3080  1.00273492  6253
BEIDOU-3 G3             
1 45807U 20040A   21297.99266862 -.00000348  00000-0  00000-0 0  9995
2 45807   1.9870 299.2662 0010267 338.8789 223.3910  1.00273858  5075
